COSMOS 1743             
1 16719U 86034A   25316.91462217  .00054394  00000+0  95922-3 0  9998
2 16719  82.5377 195.5188 0007265  16.6880 343.4609 15.50153655162110
SL-14 R/B               
1 16792U 86046B   25316.60423255  .00000938  00000+0  10564-3 0  9991
2 16792  82.4833 190.7715 0021672 254.2886 105.5939 14.85440668109028
SL-14 R/B               
1 16882U 86055B   25316.55699715  .00001216  00000+0  13780-3 0  9994
2 16882  82.5216 236.7292 0019162   4.6852 168.3309 14.85482443101977
AJISAI (EGS)            
1 16908U 86061A   25316.95991003 -.00000092  00000+0  36878-4 0  9995
2 16908  50.0082  92.2862 0011190 350.9083 126.7506 12.44514143453468
COSMOS 1812             
1 17295U 87003A   25316.75325542  .00107104  00000+0  90474-3 0  9991
2 17295  82.4887 324.3228 0004989 138.2249 221.9394 15.69396798125940
SL-14 R/B               
1 17567U 87024B   25316.41077465  .00001119  00000+0  12518-3 0  9999
2 17567  82.5303 202.9415 0016884 291.3706  68.5708 14.85980647 70718
COSMOS 1833             
1 17589U 87027A   25316.70229170 -.00000200  00000+0 -81476-4 0  9992
2 17589  70.9150 211.9202 0021212  14.0630 346.1077 14.13020013993782
SL-16 R/B               
1 17590U 87027B   25316.87430077 -.00000022  00000+0  12979-4 0  9995
2 17590  71.0009 162.6502 0007205 291.0953  68.9400 14.17147652998838
SL-14 R/B               
1 17912U 87038B   25316.68236890  .00001130  00000+0  12867-3 0  9996
2 17912  82.5037  47.0051 0019121 187.1213 172.9734 14.85217063 61862
COSMOS 1844             
1 17973U 87041A   25316.86127789  .00000503  00000+0  28578-3 0  9992
2 17973  70.8988 280.5881 0031679 202.0499 157.9263 14.14521821987065
SL-14 R/B               
1 18153U 87055B   25316.67955706  .00001124  00000+0  12707-3 0  9992
2 18153  82.4974  99.3162 0021713  43.5270 316.7654 14.85472974 52560
COSMOS 1867             
1 18187U 87060A   25316.98114673  .00000083  00000+0  68958-4 0  9992
2 18187  65.0103 273.5367 0013707 268.1410  91.8105 14.31478978  3239
